      2.10          N: GNSS NAV DATA                        RINEX VERSION / TYPE
fic2rin                                 11/15/2018 00:21:20 PGM / RUN BY / DATE
                                                            END OF HEADER
26 18 11 14  1 59 44.0 3.863591700792e-05 1.102762325900e-11 0.000000000000e+00
    4.000000000000e+00 6.612500000000e+01 4.744840498795e-09 1.460398578846e+00
    3.628432750702e-06 3.191311378032e-03 6.278976798058e-06 5.153752796173e+03
    2.663840000000e+05 7.264316082001e-08-1.593335331555e+00 2.980232238770e-08
    9.536954045102e-01 2.529062500000e+02 4.144743744642e-02-8.225699776270e-09
   -1.060758470562e-10 1.000000000000e+00 2.027000000000e+03 0.000000000000e+00
    2.400000000000e+00 0.000000000000e+00 7.450580596924e-09 4.000000000000e+00
    2.592060000000e+05 4.000000000000e+00
 1 18 11 14  2  0  0.0-1.139934174716e-04-5.343281372916e-12 0.000000000000e+00
    4.400000000000e+01-8.512500000000e+01 4.068383750228e-09-2.643482576666e+00
   -4.306435585022e-06 8.153088041581e-03 7.025897502899e-06 5.153666156769e+03
    2.664000000000e+05 2.793967723846e-08 5.278370682240e-01-4.656612873077e-08
    9.733940982284e-01 2.497500000000e+02 6.995842841735e-01-7.802467861248e-09
    1.500062483624e-11 1.000000000000e+00 2.027000000000e+03 0.000000000000e+00
    2.400000000000e+00 0.000000000000e+00 5.587935447693e-09 4.400000000000e+01
    2.592060000000e+05 4.000000000000e+00
 2 18 11 14  2  0  0.0-5.796365439892e-05-1.057287590811e-11 0.000000000000e+00
    9.900000000000e+01-7.771875000000e+01 4.484472510566e-09-2.306095807267e+00
   -3.926455974579e-06 1.839090732392e-02 5.796551704407e-06 5.153594739914e+03
    2.664000000000e+05 2.663582563400e-07 4.631735889934e-01-9.872019290924e-08
    9.525229707594e-01 2.615937500000e+02-1.816582163207e+00-7.772109453841e-09
    6.250260348431e-11 1.000000000000e+00 2.027000000000e+03 0.000000000000e+00
    3.400000000000e+00 0.000000000000e+00-2.048909664154e-08 9.900000000000e+01
    2.592060000000e+05 4.000000000000e+00
 6 18 11 14  2  0  0.0 3.339340910316e-04-6.252776074689e-12 0.000000000000e+00
    1.000000000000e+01-7.940625000000e+01 4.170530862208e-09-2.291127375772e+00
   -4.144385457039e-06 1.077985391021e-03 6.541609764099e-06 5.153740283966e+03
    2.664000000000e+05 1.154839992523e-07 5.195346380059e-01 2.607703208923e-08
    9.730855629539e-01 2.625000000000e+02-1.221315639967e+00-7.927830225950e-09
   -7.786038605475e-11 1.000000000000e+00 2.027000000000e+03 0.000000000000e+00
    2.400000000000e+00 0.000000000000e+00 4.656612873077e-09 1.000000000000e+01
    2.592060000000e+05 4.000000000000e+00
 3 18 11 14  2  0  0.0 1.600333489478e-04 3.979039320257e-12 0.000000000000e+00
    8.500000000000e+01-3.028125000000e+01 4.368396246952e-09 2.527949194819e+00
   -1.523643732071e-06 1.841283170506e-03 9.357929229736e-06 5.153640327454e+03
    2.664000000000e+05-7.450580596924e-09 1.570602244379e+00 1.117587089539e-08
    9.614265959397e-01 1.979062500000e+02 7.065139866749e-01-7.875328039024e-09
    3.196561721055e-10 1.000000000000e+00 2.027000000000e+03 0.000000000000e+00
    2.400000000000e+00 0.000000000000e+00 2.328306436539e-09 8.500000000000e+01
    2.592060000000e+05 4.000000000000e+00
 8 18 11 14  2  0  0.0-1.221001148224e-04-1.364242052659e-12 0.000000000000e+00
    8.100000000000e+01-6.937500000000e+00 4.399468969827e-09-5.634072176578e-02
   -4.488974809647e-07 3.769252332859e-03 3.935769200325e-06 5.153654186249e+03
    2.664000000000e+05 4.097819328308e-08-5.373913993660e-01-6.519258022308e-08
    9.700557001536e-01 3.110625000000e+02-4.136316853743e-01-8.255343868208e-09
   -7.143154683922e-11 1.000000000000e+00 2.027000000000e+03 0.000000000000e+00
    2.400000000000e+00 0.000000000000e+00 5.122274160385e-09 8.100000000000e+01
    2.592060000000e+05 4.000000000000e+00
 5 18 11 14  2  0  0.0-2.151355147362e-07 2.273736754432e-13 0.000000000000e+00
    7.100000000000e+01-3.100000000000e+01 4.696267046944e-09 2.564679779150e-01
   -1.484528183937e-06 5.578713724390e-03 8.501112461090e-06 5.153573907852e+03
    2.664000000000e+05 1.303851604462e-08 1.546431739249e+00 1.229345798492e-07
    9.483106254240e-01 2.087500000000e+02 7.187118897836e-01-8.084622471263e-09
    2.664396697103e-10 1.000000000000e+00 2.027000000000e+03 0.000000000000e+00
    2.400000000000e+00 0.000000000000e+00-1.117587089539e-08 7.100000000000e+01
    2.592060000000e+05 4.000000000000e+00
 7 18 11 14  2  0  0.0 8.893664926291e-05-6.821210263297e-12 0.000000000000e+00
    5.100000000000e+01 3.131250000000e+01 4.617335187687e-09 3.005712040108e+00
    1.547858119011e-06 1.209124620073e-02 8.316710591316e-06 5.153632425308e+03
    2.664000000000e+05-3.911554813385e-08-2.602824159697e+00-1.769512891769e-07
    9.573556504141e-01 2.190937500000e+02-2.481392006886e+00-7.794967548830e-09
   -2.560820954186e-10 1.000000000000e+00 2.027000000000e+03 0.000000000000e+00
    2.400000000000e+00 0.000000000000e+00-1.117587089539e-08 5.100000000000e+01
    2.592060000000e+05 4.000000000000e+00
 4 18 11 14  2  0  0.0-4.472909495234e-05-2.262368070660e-11 0.000000000000e+00
    5.600000000000e+01 2.968750000000e+00 4.788413742367e-09-2.664303900552e-01
    1.937150955200e-07 1.367588632274e-02 3.529712557793e-06 5.153672136307e+03
    2.664000000000e+05 1.285225152969e-07-6.251002183218e-01 1.545995473862e-07
    9.589526624904e-01 3.080312500000e+02 5.768838399046e-01-8.561428046414e-09
   -7.464596644698e-11 1.000000000000e+00 2.027000000000e+03 0.000000000000e+00
    2.400000000000e+00 6.300000000000e+01-5.587935447693e-09 5.600000000000e+01
    2.592060000000e+05 4.000000000000e+00
10 18 11 14  2  0  0.0 1.645316369832e-04-4.320099833421e-12 0.000000000000e+00
    4.300000000000e+01-2.028125000000e+01 4.442685055665e-09 1.683048178581e+00
   -1.043081283569e-06 3.993132850155e-03 8.838251233101e-06 5.153664079666e+03
    2.664000000000e+05-7.078051567078e-08 1.567251474406e+00 1.862645149231e-08
    9.614857168480e-01 2.088437500000e+02-2.819187066480e+00-7.919972755798e-09
    2.267951612145e-10 1.000000000000e+00 2.027000000000e+03 0.000000000000e+00
    2.400000000000e+00 0.000000000000e+00 1.862645149231e-09 4.300000000000e+01
    2.592060000000e+05 4.000000000000e+00
 9 18 11 14  2  0  0.0 4.926831461489e-04-3.296918293927e-12 0.000000000000e+00
    9.100000000000e+01 1.262500000000e+01 4.881274753258e-09 5.825073540551e-03
    4.339963197708e-07 1.360242138617e-03 7.187947630882e-06 5.153784433365e+03
    2.664000000000e+05-1.117587089539e-08 2.603772774296e+00-5.587935447693e-09
    9.526804290210e-01 2.363125000000e+02 1.679070583321e+00-8.119623929214e-09
    8.928943354902e-11 1.000000000000e+00 2.027000000000e+03 0.000000000000e+00
    2.400000000000e+00 0.000000000000e+00 1.396983861923e-09 9.100000000000e+01
    2.592060000000e+05 4.000000000000e+00
24 18 11 14  2  0  0.0-5.811313167214e-05-4.547473508865e-13 0.000000000000e+00
    1.200000000000e+01 1.865625000000e+01 5.069854036913e-09-2.259003380032e+00
    7.841736078262e-07 7.628252613358e-03 7.975846529007e-06 5.153617136002e+03
    2.664000000000e+05 5.960464477539e-08-2.665455224395e+00-1.359730958939e-07
    9.404903261914e-01 2.151875000000e+02 5.462113207625e-01-8.176412008951e-09
   -1.375057276655e-10 1.000000000000e+00 2.027000000000e+03 0.000000000000e+00
    2.400000000000e+00 0.000000000000e+00 2.793967723846e-09 1.200000000000e+01
    2.592060000000e+05 4.000000000000e+00
14 18 11 14  2  0  0.0-9.582703933120e-05 3.410605131648e-13 0.000000000000e+00
    1.200000000000e+01 1.140625000000e+01 4.804485840406e-09-7.045204287094e-01
    7.599592208862e-07 9.990509250201e-03 7.217749953270e-06 5.153640989304e+03
    2.664000000000e+05-9.685754776001e-08 2.694959597599e+00 1.564621925354e-07
    9.609045360681e-01 2.441875000000e+02-1.946086257641e+00-8.218199463852e-09
    2.357241045694e-11 1.000000000000e+00 2.027000000000e+03 0.000000000000e+00
    2.400000000000e+00 0.000000000000e+00-9.778887033463e-09 1.200000000000e+01
    2.592060000000e+05 4.000000000000e+00
17 18 11 14  2  0  0.0-3.177626058459e-05 4.888534022029e-12 0.000000000000e+00
    1.000000000000e+01-1.218750000000e+00 4.247676932794e-09-4.508682257742e-01
   -3.725290298462e-09 1.284450676758e-02 4.231929779053e-06 5.153641147614e+03
    2.664000000000e+05-1.285225152969e-07-4.725572327055e-01 9.685754776001e-08
    9.837138734599e-01 3.131562500000e+02-1.762459179899e+00-8.328204045984e-09
   -5.000208278745e-12 1.000000000000e+00 2.027000000000e+03 0.000000000000e+00
    2.400000000000e+00 0.000000000000e+00-1.117587089539e-08 1.000000000000e+01
    2.592060000000e+05 4.000000000000e+00
13 18 11 14  2  0  0.0-8.454406633973e-05 1.023181539495e-12 0.000000000000e+00
    3.700000000000e+01 1.171875000000e+01 4.539117643898e-09-1.607360849443e+00
    7.040798664093e-07 3.606185200624e-03 7.089227437973e-06 5.153662364960e+03
    2.664000000000e+05 2.980232238770e-08 2.738008709441e+00 5.215406417847e-08
    9.683760273542e-01 2.462187500000e+02 1.417953510267e+00-7.930687487824e-09
    3.857303529318e-11 1.000000000000e+00 2.027000000000e+03 0.000000000000e+00
    2.400000000000e+00 0.000000000000e+00-1.117587089539e-08 3.700000000000e+01
    2.592060000000e+05 4.000000000000e+00
19 18 11 14  2  0  0.0-3.839619457722e-04 3.751665644813e-12 0.000000000000e+00
    4.100000000000e+01-1.165625000000e+01 4.150887186827e-09 2.305236821269e+00
   -8.679926395416e-07 9.476632694714e-03 3.635883331299e-06 5.153608524323e+03
    2.664000000000e+05 4.097819328308e-08-4.259348220321e-01-1.173466444016e-07
    9.813974085127e-01 3.175000000000e+02 1.311933404229e+00-7.938902115711e-09
   -1.139333172086e-10 1.000000000000e+00 2.027000000000e+03 0.000000000000e+00
    2.400000000000e+00 0.000000000000e+00-1.536682248116e-08 4.100000000000e+01
    2.592060000000e+05 4.000000000000e+00
